SAUDISAT 2              
1 28371U 04025F   26192.48225015  .00000120  00000+0  37863-4 0  9992
2 28371  98.5518 193.0929 0023884 219.8550 140.0894 14.56697068169281
COSMOS 2407             
1 28380U 04028A   26192.07495206  .00000037  00000+0  22534-4 0  9997
2 28380  82.9589  57.1397 0039020 183.5878 330.2004 13.76336323103160
COSMOS 2414             
1 28521U 05002A   26192.54304391  .00000059  00000+0  36768-4 0  9991
2 28521  82.9486  25.2186 0038690 259.6486 100.0315 13.87928024 87196
INMARSAT 4-F1           
1 28628U 05009A   26192.35044852  .00000034  00000+0  00000+0 0  9996
2 28628   5.1994  42.7791 0002501  72.8617 117.8843  1.00270992 77911
SJ-7                    
1 28737U 05024A   26192.02608463  .00004905  00000+0  21827-3 0  9997
2 28737  97.7281 222.7748 0013907 312.8403  47.1663 15.21897530151652
CUBESAT XI-V            
1 28895U 05043F   26192.38715502  .00000804  00000+0  13420-3 0  9999
2 28895  98.3011 348.5214 0015131 126.3821 233.8784 14.72696464105311
HINODE (SOLAR-B)        
1 29479U 06041A   26192.50820339  .00000356  00000+0  69596-4 0  9994
2 29479  98.0548 208.3023 0016730 206.4917 153.5434 14.68655411 58448
SHIJIAN-6 02B (SJ-6 02B)
1 29506U 06046B   26192.53872038  .00000940  00000+0  77388-4 0  9993
2 29506  97.7156 221.4468 0013880 348.7535  11.3377 15.01434576 74392
DMSP 5D-3 F17 (USA 191) 
1 29522U 06050A   26192.49435058  .00000004  00000+0  24270-4 0  9991
2 29522  98.7385 198.5676 0009948 353.6841   6.4206 14.14996041 15861
LAPAN-TUBSAT            
1 29709U 07001A   26192.42851277  .00001132  00000+0  13597-3 0  9995
2 29709  98.1353 192.1998 0013575 104.6507 255.6213 14.85976920 54757
HAIYANG-1B              
1 31113U 07010A   26192.47698824  .00000042  00000+0  31668-4 0  9998
2 31113  98.3512 173.3820 0014531 126.0574 234.1958 14.31032731  4115
COSMO-SKYMED 2          
1 32376U 07059A   26192.53233338  .00000210  00000+0  32922-4 0  9996
2 32376  97.8891  15.7778 0001437  93.2695 266.8682 14.82148801  5616
CARTOSAT-2A             
1 32783U 08021A   26192.46557307  .00000230  00000+0  37590-4 0  9993
2 32783  97.7627 240.3442 0012782  38.4190 321.7929 14.79273417982396
CUTE-1.7+APD II (CO-65) 
1 32785U 08021C   26192.50930786  .00003123  00000+0  19801-3 0  9994
2 32785  97.8286 174.4391 0007328 314.4925  45.5703 15.09678405988862
SEEDS II (CO-66)        
1 32791U 08021J   26192.47991517  .00011050  00000+0  34281-3 0  9993
2 32791  97.7523 191.5526 0002674 165.3610 194.7710 15.33583127991014
YUBILEINY (RS30)        
1 32953U 08025A   26192.48331778  .00000039  00000+0  21006-3 0  9991
2 32953  82.5054 340.3257 0018560 257.6252 102.2750 12.43180674822714
FENGYUN 3A              
1 32958U 08026A   26192.29362571  .00000019  00000+0  29750-4 0  9994
2 32958  98.6887 132.6764 0009786  62.0344 298.1821 14.19575960938821
HUANJING 1A (HJ-1A)     
1 33320U 08041A   26192.50719836  .00000897  00000+0  11339-3 0  9996
2 33320  97.6693 177.4064 0020518  60.7867 299.5396 14.84043327962019
HUANJING 1B (HJ-1B)     
1 33321U 08041B   26192.55488625  .00000430  00000+0  58047-4 0  9992
2 33321  97.6531 180.5503 0037913 102.5905 257.9553 14.83361246962025
SHIJIAN-6 03A (SJ-6 03A)
1 33408U 08053A   26192.51585469  .00005354  00000+0  27122-3 0  9990
2 33408  97.8405 226.6844 0009583 291.0872  68.9336 15.17398486966658
SHIJIAN-6 03B (SJ-6 03B)
1 33409U 08053B   26192.51106076  .00001091  00000+0  82587-4 0  9995
2 33409  97.8583 212.8058 0018094 324.4489  35.5529 15.04378276966400
CHUANGXIN 1-02 (CX-1-02)
1 33434U 08056B   26192.50451137  .00000085  00000+0  49753-4 0  9996
2 33434  98.6135 218.5279 0015491  70.5058 289.7797 14.30158222922099
