OBJECT_NAME,OBJECT_ID,EPOCH,MEAN_MOTION,ECCENTRICITY,INCLINATION,RA_OF_ASC_NODE,ARG_OF_PERICENTER,MEAN_ANOMALY,EPHEMERIS_TYPE,CLASSIFICATION_TYPE,NORAD_CAT_ID,ELEMENT_SET_NO,REV_AT_EPOCH,BSTAR,MEAN_MOTION_DOT,MEAN_MOTION_DDOT
SAUDISAT 2,2004-025F,2026-07-11T11:34:26.412960,14.56697068,.0023884,98.5518,193.0929,219.8550,140.0894,0,U,28371,999,16928,.37863E-4,.12E-5,0
COSMOS 2407,2004-028A,2026-07-11T01:47:55.857984,13.76336323,.003902,82.9589,57.1397,183.5878,330.2004,0,U,28380,999,10316,.22534E-4,.37E-6,0
COSMOS 2414,2005-002A,2026-07-11T13:01:58.993824,13.87928024,.003869,82.9486,25.2186,259.6486,100.0315,0,U,28521,999,8719,.36768E-4,.59E-6,0
INMARSAT 4-F1,2005-009A,2026-07-11T08:24:38.752128,1.00270992,.0002501,5.1994,42.7791,72.8617,117.8843,0,U,28628,999,7791,0,.34E-6,0
SJ-7,2005-024A,2026-07-11T00:37:33.712032,15.21897530,.0013907,97.7281,222.7748,312.8403,47.1663,0,U,28737,999,15165,.21827E-3,.4905E-4,0
CUBESAT XI-V,2005-043F,2026-07-11T09:17:30.193728,14.72696464,.0015131,98.3011,348.5214,126.3821,233.8784,0,U,28895,999,10531,.1342E-3,.804E-5,0
HINODE (SOLAR-B),2006-041A,2026-07-11T12:11:48.772896,14.68655411,.001673,98.0548,208.3023,206.4917,153.5434,0,U,29479,999,5844,.69596E-4,.356E-5,0
SHIJIAN-6 02B (SJ-6 02B),2006-046B,2026-07-11T12:55:45.440832,15.01434576,.001388,97.7156,221.4468,348.7535,11.3377,0,U,29506,999,7439,.77388E-4,.94E-5,0
DMSP 5D-3 F17 (USA 191),2006-050A,2026-07-11T11:51:51.890112,14.14996041,.0009948,98.7385,198.5676,353.6841,6.4206,0,U,29522,999,1586,.2427E-4,.4E-7,0
LAPAN-TUBSAT,2007-001A,2026-07-11T10:17:03.503328,14.85976920,.0013575,98.1353,192.1998,104.6507,255.6213,0,U,29709,999,5475,.13597E-3,.1132E-4,0
HAIYANG-1B,2007-010A,2026-07-11T11:26:51.783936,14.31032731,.0014531,98.3512,173.3820,126.0574,234.1958,0,U,31113,999,411,.31668E-4,.42E-6,0
COSMO-SKYMED 2,2007-059A,2026-07-11T12:46:33.604032,14.82148801,.0001437,97.8891,15.7778,93.2695,266.8682,0,U,32376,999,561,.32922E-4,.21E-5,0
CARTOSAT-2A,2008-021A,2026-07-11T11:10:25.513248,14.79273417,.0012782,97.7627,240.3442,38.4190,321.7929,0,U,32783,999,98239,.3759E-4,.23E-5,0
CUTE-1.7+APD II (CO-65),2008-021C,2026-07-11T12:13:24.199104,15.09678405,.0007328,97.8286,174.4391,314.4925,45.5703,0,U,32785,999,98886,.19801E-3,.3123E-4,0
SEEDS II (CO-66),2008-021J,2026-07-11T11:31:04.670688,15.33583127,.0002674,97.7523,191.5526,165.3610,194.7710,0,U,32791,999,99101,.34281E-3,.1105E-3,0
YUBILEINY (RS30),2008-025A,2026-07-11T11:35:58.656192,12.43180674,.001856,82.5054,340.3257,257.6252,102.2750,0,U,32953,999,82271,.21006E-3,.39E-6,0
FENGYUN 3A,2008-026A,2026-07-11T07:02:49.261344,14.19575960,.0009786,98.6887,132.6764,62.0344,298.1821,0,U,32958,999,93882,.2975E-4,.19E-6,0
HUANJING 1A (HJ-1A),2008-041A,2026-07-11T12:10:21.938304,14.84043327,.0020518,97.6693,177.4064,60.7867,299.5396,0,U,33320,999,96201,.11339E-3,.897E-5,0
HUANJING 1B (HJ-1B),2008-041B,2026-07-11T13:19:02.172000,14.83361246,.0037913,97.6531,180.5503,102.5905,257.9553,0,U,33321,999,96202,.58047E-4,.43E-5,0
SHIJIAN-6 03A (SJ-6 03A),2008-053A,2026-07-11T12:22:49.845216,15.17398486,.0009583,97.8405,226.6844,291.0872,68.9336,0,U,33408,999,96665,.27122E-3,.5354E-4,0
SHIJIAN-6 03B (SJ-6 03B),2008-053B,2026-07-11T12:15:55.649664,15.04378276,.0018094,97.8583,212.8058,324.4489,35.5529,0,U,33409,999,96640,.82587E-4,.1091E-4,0
CHUANGXIN 1-02 (CX-1-02),2008-056B,2026-07-11T12:06:29.782368,14.30158222,.0015491,98.6135,218.5279,70.5058,289.7797,0,U,33434,999,92209,.49753E-4,.85E-6,0
